[{"OBJECT_NAME":"KUIPER-00076","OBJECT_ID":"2025-151H","EPOCH":"2026-03-09T19:47:59.739936","MEAN_MOTION":14.80522013,"ECCENTRICITY":7.688e-5,"INCLINATION":51.9006,"RA_OF_ASC_NODE":292.379,"ARG_OF_PERICENTER":25.0802,"MEAN_ANOMALY":335.0198,"EPHEMERIS_TYPE":0,"CLASSIFICATION_TYPE":"U","NORAD_CAT_ID":64823,"ELEMENT_SET_NO":999,"REV_AT_EPOCH":3543,"BSTAR":0.00061277235,"MEAN_MOTION_DOT":4.518e-5,"MEAN_MOTION_DDOT":0},{"OBJECT_NAME":"SL-14 R\/B","OBJECT_ID":"1987-003B","EPOCH":"2026-03-09T23:05:47.136768","MEAN_MOTION":14.85629429,"ECCENTRICITY":0.00190097,"INCLINATION":82.5259,"RA_OF_ASC_NODE":280.8039,"ARG_OF_PERICENTER":139.1629,"MEAN_ANOMALY":221.1016,"EPHEMERIS_TYPE":0,"CLASSIFICATION_TYPE":"U","NORAD_CAT_ID":17296,"ELEMENT_SET_NO":999,"REV_AT_EPOCH":9474,"BSTAR":5.8437645e-5,"MEAN_MOTION_DOT":5.32e-6,"MEAN_MOTION_DDOT":0}]
